FORMOSAT 7-3            
1 44343U 19036E   26068.82630502  .00006445  00000+0  37650-3 0  9997
2 44343  23.9981 141.9797 0001061 150.4425 209.6139 15.08933962368215
STARLINK-3291           
1 50175U 21125V   26068.70640514  .00000015  00000+0  19005-4 0  9992
2 50175  53.2169 249.0469 0001343  88.2670 271.8476 15.08837256236609
